NORAD_CAT_ID,OBJECT_NAME,OBJECT_TYPE,EPOCH,MEAN_MOTION,ECCENTRICITY,INCLINATION,RA_OF_ASC_NODE,ARG_OF_PERICENTER,MEAN_ANOMALY,BSTAR,MEAN_MOTION_DOT,MEAN_MOTION_DDOT,TLE_LINE0,TLE_LINE1,TLE_LINE2,SEMIMAJOR_AXIS,PERIOD,APOGEE,PERIGEE,DECAYED
52854.0,STARLINK-4204,PAYLOAD,2023-11-27 20:42:50,15.08839662,0.0001334,53.2147,162.8243,93.2753,266.8392,-3.8303e-05,-8.97e-06,0.0,0 STARLINK-4204,1 52854U 22062AA  23331.86308627 -.00000897  00000-0 -38303-4 0  9995,2 52854  53.2147 162.8243 0001334  93.2753 266.8392 15.08839662 80196,6917.881,95.438,540.669,538.824,0.0
52854.0,STARLINK-4204,PAYLOAD,2023-11-28 18:58:14,15.08842929,0.0001323,53.2162,158.6622,86.1997,273.9146,0.00012105,1.639e-05,0.0,0 STARLINK-4204,1 52854U 22062AA  23332.79044501  .00001639  00000-0  12105-3 0  9990,2 52854  53.2162 158.6622 0001323  86.1997 273.9146 15.08842929 80822,6917.871,95.437,540.652,538.821,0.0
52854.0,STARLINK-4204,PAYLOAD,2023-11-29 12:27:29,15.08838109,0.000136,53.216,155.3899,88.5558,271.559,7.4577e-05,8.99e-06,0.0,0 STARLINK-4204,1 52854U 22062AA  23333.51909012  .00000899  00000-0  74577-4 0  9997,2 52854  53.2160 155.3899 0001360  88.5558 271.5590 15.08838109 80934,6917.886,95.438,540.692,538.81,0.0
52854.0,STARLINK-4204,PAYLOAD,2023-11-30 18:39:48,15.08844676,0.0001371,53.2173,149.7425,86.1325,273.9824,6.0512e-05,6.75e-06,0.0,0 STARLINK-4204,1 52854U 22062AA  23334.77764676  .00000675  00000-0  60512-4 0  9997,2 52854  53.2173 149.7425 0001371  86.1325 273.9824 15.08844676 81122,6917.866,95.437,540.68,538.783,0.0
52854.0,STARLINK-4204,PAYLOAD,2023-12-01 18:30:35,15.08844622,0.000133,53.2178,145.2832,88.0623,272.0521,0.00012048,1.63e-05,0.0,0 STARLINK-4204,1 52854U 22062AA  23335.77124455  .00001630  00000-0  12048-3 0  9995,2 52854  53.2178 145.2832 0001330  88.0623 272.0521 15.08844622 80783,6917.866,95.437,540.651,538.811,0.0
52854.0,STARLINK-4204,PAYLOAD,2023-12-02 16:45:56,15.08878533,0.0001608,53.2179,141.1203,103.2752,256.842,0.00037539,5.698e-05,0.0,0 STARLINK-4204,1 52854U 22062AA  23336.69857510  .00005698  00000-0  37539-3 0  9992,2 52854  53.2179 141.1203 0001608 103.2752 256.8420 15.08878533 81419,6917.763,95.435,540.74,538.515,0.0
52854.0,STARLINK-4204,PAYLOAD,2023-12-03 19:47:34,15.08829731,0.0001268,53.2169,136.0599,91.3757,268.738,-3.7535e-05,-8.85e-06,0.0,0 STARLINK-4204,1 52854U 22062AA  23337.82470778 -.00000885  00000-0 -37535-4 0  9997,2 52854  53.2169 136.0599 0001268  91.3757 268.7380 15.08829731 81584,6917.912,95.438,540.654,538.9,0.0
52854.0,STARLINK-4204,PAYLOAD,2023-12-04 10:06:03,15.08829464,0.0002213,53.2166,133.3824,26.6544,333.4562,3.7589e-05,3.1e-06,0.0,0 STARLINK-4204,1 52854U 22062AA  23338.42087174  .00000310  00000-0  37589-4 0  9998,2 52854  53.2166 133.3824 0002213  26.6544 333.4562 15.08829464 81189,6917.913,95.438,541.309,538.247,0.0
52854.0,STARLINK-4204,PAYLOAD,2023-12-05 19:29:07,15.08849736,0.0001016,53.2163,127.1434,94.5064,265.6045,0.00023552,3.463e-05,0.0,0 STARLINK-4204,1 52854U 22062AA  23339.81189528  .00003463  00000-0  23552-3 0  9994,2 52854  53.2163 127.1434 0001016  94.5064 265.6045 15.08849736 81888,6917.851,95.437,540.418,539.013,0.0
52854.0,STARLINK-4204,PAYLOAD,2023-12-07 09:38:23,15.08841438,0.0001425,53.2179,120.0071,83.2354,276.88,5.5245e-05,5.91e-06,0.0,0 STARLINK-4204,1 52854U 22062AA  23341.40165900  .00000591  00000-0  55245-4 0  9994,2 52854  53.2179 120.0071 0001425  83.2354 276.8800 15.08841438 82127,6917.876,95.437,540.727,538.755,0.0
52854.0,STARLINK-4204,PAYLOAD,2023-12-07 12:49:09,15.08839684,0.000121,53.2176,119.4122,88.2283,271.8848,3.7786e-05,3.14e-06,0.0,0 STARLINK-4204,1 52854U 22062AA  23341.53414016  .00000314  00000-0  37786-4 0  9996,2 52854  53.2176 119.4122 0001210  88.2283 271.8848 15.08839684 81655,6917.881,95.438,540.583,538.909,0.0
52854.0,STARLINK-4204,PAYLOAD,2023-12-07 19:10:41,15.08846176,0.0001261,53.2172,118.221,83.7984,276.3152,2.6777e-06,-2.45e-06,0.0,0 STARLINK-4204,1 52854U 22062AA  23341.79909161 -.00000245  00000-0  26777-5 0  9997,2 52854  53.2172 118.2210 0001261  83.7984 276.3152 15.08846176 82181,6917.862,95.437,540.599,538.854,0.0
52854.0,STARLINK-4204,PAYLOAD,2023-12-08 09:29:10,15.0883922,0.0001274,53.217,115.5441,81.4774,278.6362,-6.6619e-08,-2.89e-06,0.0,0 STARLINK-4204,1 52854U 22062AA  23342.39525834 -.00000289  00000-0 -66619-7 0  9995,2 52854  53.2170 115.5441 0001274  81.4774 278.6362 15.08839220 82271,6917.883,95.438,540.629,538.866,0.0
52854.0,STARLINK-4204,PAYLOAD,2023-12-08 12:39:56,15.08836765,0.0001413,53.2155,114.9477,108.2282,251.8864,7.9698e-05,9.81e-06,0.0,0 STARLINK-4204,1 52854U 22062AA  23342.52773570  .00000981  00000-0  79698-4 0  9997,2 52854  53.2155 114.9477 0001413 108.2282 251.8864 15.08836765 81802,6917.89,95.438,540.733,538.778,0.0
52854.0,STARLINK-4204,PAYLOAD,2023-12-09 12:30:43,15.08836743,0.0001326,53.216,110.4876,102.0815,258.0326,5.1468e-05,5.31e-06,0.0,0 STARLINK-4204,1 52854U 22062AA  23343.52133905  .00000531  00000-0  51468-4 0  9996,2 52854  53.2160 110.4876 0001326 102.0815 258.0326 15.08836743 81953,6917.89,95.438,540.673,538.838,0.0
52854.0,STARLINK-4204,PAYLOAD,2023-12-10 13:56:54,15.0883792,0.0001201,53.217,105.7318,87.4211,272.6919,6.3621e-05,7.25e-06,0.0,0 STARLINK-4204,1 52854U 22062AA  23344.58118087  .00000725  00000-0  63621-4 0  9996,2 52854  53.2170 105.7318 0001201  87.4211 272.6919 15.08837920 82117,6917.887,95.438,540.583,538.921,0.0
52854.0,STARLINK-4204,PAYLOAD,2023-12-10 15:32:17,15.08838997,0.0001213,53.2169,105.4341,90.4716,269.6415,7.0728e-05,8.38e-06,0.0,0 STARLINK-4204,1 52854U 22062AA  23344.64741993  .00000838  00000-0  70728-4 0  9992,2 52854  53.2169 105.4341 0001213  90.4716 269.6415 15.08838997 82612,6917.883,95.438,540.588,538.909,0.0
52854.0,STARLINK-4204,PAYLOAD,2023-12-11 13:47:41,15.08839515,0.000127,53.2179,101.2716,97.0883,263.0254,6.6708e-05,7.74e-06,0.0,0 STARLINK-4204,1 52854U 22062AA  23345.57478108  .00000774  00000-0  66708-4 0  9992,2 52854  53.2179 101.2716 0001270  97.0883 263.0254 15.08839515 82261,6917.882,95.438,540.625,538.868,0.0
52854.0,STARLINK-4204,PAYLOAD,2023-12-11 15:23:04,15.08840801,0.0001222,53.2176,100.9742,90.0771,270.0361,7.7946e-05,9.53e-06,0.0,0 STARLINK-4204,1 52854U 22062AA  23345.64102020  .00000953  00000-0  77946-4 0  9992,2 52854  53.2176 100.9742 0001222  90.0771 270.0361 15.08840801 82277,6917.878,95.438,540.588,538.898,0.0
52854.0,STARLINK-4204,PAYLOAD,2023-12-12 12:03:05,15.08839295,0.0001234,53.2177,97.1084,87.2984,272.815,4.2032e-05,3.81e-06,0.0,0 STARLINK-4204,1 52854U 22062AA  23346.50214302  .00000381  00000-0  42032-4 0  9998,2 52854  53.2177  97.1084 0001234  87.2984 272.8150 15.08839295 82890,6917.883,95.438,540.601,538.894,0.0
52854.0,STARLINK-4204,PAYLOAD,2023-12-12 13:38:28,15.08840788,0.0001252,53.2179,96.8113,85.5261,274.5875,5.5621e-05,5.97e-06,0.0,0 STARLINK-4204,1 52854U 22062AA  23346.56838179  .00000597  00000-0  55621-4 0  9995,2 52854  53.2179  96.8113 0001252  85.5261 274.5875 15.08840788 82410,6917.878,95.438,540.609,538.877,0.0
52854.0,STARLINK-4204,PAYLOAD,2023-12-12 15:13:51,15.08841321,0.0001429,53.2175,96.5152,78.9202,281.195,7.9188e-05,9.73e-06,0.0,0 STARLINK-4204,1 52854U 22062AA  23346.63462144  .00000973  00000-0  79188-4 0  9990,2 52854  53.2175  96.5152 0001429  78.9202 281.1950 15.08841321 82426,6917.876,95.437,540.73,538.753,0.0
52854.0,STARLINK-4204,PAYLOAD,2023-12-13 13:29:14,15.08846202,0.000135,53.2171,92.3512,70.2913,289.8225,9.6709e-05,1.252e-05,0.0,0 STARLINK-4204,1 52854U 22062AA  23347.56197636  .00001252  00000-0  96709-4 0  9993,2 52854  53.2171  92.3512 0001350  70.2913 289.8225 15.08846202 82561,6917.861,95.437,540.66,538.793,0.0
52854.0,STARLINK-4204,PAYLOAD,2023-12-14 11:44:39,15.08842354,0.0001455,53.2164,88.1902,53.9371,306.1756,2.4072e-05,9.5e-07,0.0,0 STARLINK-4204,1 52854U 22062AA  23348.48934085  .00000095  00000-0  24072-4 0  9990,2 52854  53.2164  88.1902 0001455  53.9371 306.1756 15.08842354 83197,6917.873,95.437,540.745,538.732,0.0
52854.0,STARLINK-4204,PAYLOAD,2023-12-14 13:20:02,15.08843407,0.0001346,53.2165,87.8922,69.9157,290.198,2.8809e-05,1.71e-06,0.0,0 STARLINK-4204,1 52854U 22062AA  23348.55557939  .00000171  00000-0  28809-4 0  9994,2 52854  53.2165  87.8922 0001346  69.9157 290.1980 15.08843407 82712,6917.87,95.437,540.666,538.804,0.0
52854.0,STARLINK-4204,PAYLOAD,2023-12-15 11:35:26,15.08838574,0.0001445,53.2174,83.7268,73.9351,286.18,-8.2177e-05,-1.596e-05,0.0,0 STARLINK-4204,1 52854U 22062AA  23349.48294663 -.00001596  00000-0 -82177-4 0  9991,2 52854  53.2174  83.7268 0001445  73.9351 286.1800 15.08838574 83346,6917.885,95.438,540.749,538.75,0.0
52854.0,STARLINK-4204,PAYLOAD,2023-12-15 13:10:49,15.08839405,0.0001444,53.2174,83.4296,72.3889,287.7261,-4.643e-05,-1.027e-05,0.0,0 STARLINK-4204,1 52854U 22062AA  23349.54918504 -.00001027  00000-0 -46430-4 0  9996,2 52854  53.2174  83.4296 0001444  72.3889 287.7261 15.08839405 82860,6917.882,95.438,540.746,538.748,0.0
52854.0,STARLINK-4204,PAYLOAD,2023-12-16 13:01:36,15.08842306,0.0001569,53.2181,78.9712,102.0115,258.1053,7.9017e-05,9.7e-06,0.0,0 STARLINK-4204,1 52854U 22062AA  23350.54278116  .00000970  00000-0  79017-4 0  9997,2 52854  53.2181  78.9712 0001569 102.0115 258.1053 15.08842306 83014,6917.873,95.437,540.824,538.653,0.0
52854.0,STARLINK-4204,PAYLOAD,2023-12-17 11:17:01,15.08833353,0.0001622,53.2185,74.8036,107.1081,253.0088,4.0943e-05,3.64e-06,0.0,0 STARLINK-4204,1 52854U 22062AA  23351.47015070  .00000364  00000-0  40943-4 0  9991,2 52854  53.2185  74.8036 0001622 107.1081 253.0088 15.08833353 83643,6917.901,95.438,540.888,538.644,0.0
52854.0,STARLINK-4204,PAYLOAD,2023-12-17 12:52:24,15.08833627,0.0001543,53.2183,74.5061,101.3934,258.7232,4.0728e-05,3.6e-06,0.0,0 STARLINK-4204,1 52854U 22062AA  23351.53639111  .00000360  00000-0  40728-4 0  9993,2 52854  53.2183  74.5061 0001543 101.3934 258.7232 15.08833627 83165,6917.9,95.438,540.832,538.697,0.0
